[{"OBJECT_NAME":"STARLINK-6028","OBJECT_ID":"2023-078BD","EPOCH":"2026-03-09T21:12:15.545664","MEAN_MOTION":14.98325669,"ECCENTRICITY":0.00027686,"INCLINATION":69.9992,"RA_OF_ASC_NODE":343.7857,"ARG_OF_PERICENTER":205.7559,"MEAN_ANOMALY":154.3463,"EPHEMERIS_TYPE":0,"CLASSIFICATION_TYPE":"U","NORAD_CAT_ID":56818,"ELEMENT_SET_NO":999,"REV_AT_EPOCH":15340,"BSTAR":0.0002752239,"MEAN_MOTION_DOT":3.192e-5,"MEAN_MOTION_DDOT":0},{"OBJECT_NAME":"GEESAT-2 04","OBJECT_ID":"2024-023D","EPOCH":"2026-03-09T22:58:49.443744","MEAN_MOTION":14.96681304,"ECCENTRICITY":0.00064656,"INCLINATION":49.992,"RA_OF_ASC_NODE":72.838,"ARG_OF_PERICENTER":6.7244,"MEAN_ANOMALY":353.3785,"EPHEMERIS_TYPE":0,"CLASSIFICATION_TYPE":"U","NORAD_CAT_ID":58908,"ELEMENT_SET_NO":999,"REV_AT_EPOCH":11446,"BSTAR":0.0002767609,"MEAN_MOTION_DOT":2.943e-5,"MEAN_MOTION_DDOT":0}]
